CCSDS_OMM_VERS = 2.0
CREATION_DATE  = 
ORIGINATOR     = 

OBJECT_NAME    = TWILIGHT P
OBJECT_ID      = 2026-004P
CENTER_NAME    = EARTH
REF_FRAME      = TEME
TIME_SYSTEM    = UTC
MEAN_ELEMENT_THEORY = SGP/SGP4

EPOCH          = 2026-01-31T10:54:33.202080
MEAN_MOTION    = 14.87785633
ECCENTRICITY   = .0004606
INCLINATION    = 97.7996
RA_OF_ASC_NODE = 32.2891
ARG_OF_PERICENTER = 204.9236
MEAN_ANOMALY   = 155.1758

EPHEMERIS_TYPE = 0
CLASSIFICATION_TYPE = U
NORAD_CAT_ID   = 67376
ELEMENT_SET_NO = 999
REV_AT_EPOCH   = 296
BSTAR          = .22141E-3
MEAN_MOTION_DOT = .1967E-4
MEAN_MOTION_DDOT = 0

CCSDS_OMM_VERS = 2.0
CREATION_DATE  = 
ORIGINATOR     = 

OBJECT_NAME    = TWILIGHT Q
OBJECT_ID      = 2026-004Q
CENTER_NAME    = EARTH
REF_FRAME      = TEME
TIME_SYSTEM    = UTC
MEAN_ELEMENT_THEORY = SGP/SGP4

EPOCH          = 2026-01-30T12:15:35.151264
MEAN_MOTION    = 14.88280196
ECCENTRICITY   = .00066529
INCLINATION    = 97.7999
RA_OF_ASC_NODE = 31.3669
ARG_OF_PERICENTER = 209.0200
MEAN_ANOMALY   = 151.0648

EPHEMERIS_TYPE = 0
CLASSIFICATION_TYPE = U
NORAD_CAT_ID   = 67377
ELEMENT_SET_NO = 999
REV_AT_EPOCH   = 281
BSTAR          = .15452251E-1
MEAN_MOTION_DOT = .14578E-2
MEAN_MOTION_DDOT = 0

CCSDS_OMM_VERS = 2.0
CREATION_DATE  = 
ORIGINATOR     = 

OBJECT_NAME    = TWILIGHT R
OBJECT_ID      = 2026-004R
CENTER_NAME    = EARTH
REF_FRAME      = TEME
TIME_SYSTEM    = UTC
MEAN_ELEMENT_THEORY = SGP/SGP4

EPOCH          = 2026-01-31T10:55:58.560960
MEAN_MOTION    = 14.87717485
ECCENTRICITY   = .0004035
INCLINATION    = 97.7968
RA_OF_ASC_NODE = 32.2830
ARG_OF_PERICENTER = 214.3411
MEAN_ANOMALY   = 145.7545

EPHEMERIS_TYPE = 0
CLASSIFICATION_TYPE = U
NORAD_CAT_ID   = 67378
ELEMENT_SET_NO = 999
REV_AT_EPOCH   = 295
BSTAR          = .25975E-3
MEAN_MOTION_DOT = .2314E-4
MEAN_MOTION_DDOT = 0

CCSDS_OMM_VERS = 2.0
CREATION_DATE  = 
ORIGINATOR     = 

OBJECT_NAME    = TWILIGHT S
OBJECT_ID      = 2026-004S
CENTER_NAME    = EARTH
REF_FRAME      = TEME
TIME_SYSTEM    = UTC
MEAN_ELEMENT_THEORY = SGP/SGP4

EPOCH          = 2026-01-31T10:55:45.258816
MEAN_MOTION    = 14.87726332
ECCENTRICITY   = .0004532
INCLINATION    = 97.7972
RA_OF_ASC_NODE = 32.2849
ARG_OF_PERICENTER = 210.9682
MEAN_ANOMALY   = 149.1267

EPHEMERIS_TYPE = 0
CLASSIFICATION_TYPE = U
NORAD_CAT_ID   = 67379
ELEMENT_SET_NO = 999
REV_AT_EPOCH   = 295
BSTAR          = .24774E-3
MEAN_MOTION_DOT = .2205E-4
MEAN_MOTION_DDOT = 0

CCSDS_OMM_VERS = 2.0
CREATION_DATE  = 
ORIGINATOR     = 

OBJECT_NAME    = TWILIGHT T
OBJECT_ID      = 2026-004T
CENTER_NAME    = EARTH
REF_FRAME      = TEME
TIME_SYSTEM    = UTC
MEAN_ELEMENT_THEORY = SGP/SGP4

EPOCH          = 2026-01-31T10:54:01.439712
MEAN_MOTION    = 14.87826872
ECCENTRICITY   = .0004041
INCLINATION    = 97.7965
RA_OF_ASC_NODE = 32.2848
ARG_OF_PERICENTER = 209.5877
MEAN_ANOMALY   = 150.5111

EPHEMERIS_TYPE = 0
CLASSIFICATION_TYPE = U
NORAD_CAT_ID   = 67380
ELEMENT_SET_NO = 999
REV_AT_EPOCH   = 295
BSTAR          = .29483E-3
MEAN_MOTION_DOT = .264E-4
MEAN_MOTION_DDOT = 0

CCSDS_OMM_VERS = 2.0
CREATION_DATE  = 
ORIGINATOR     = 

OBJECT_NAME    = TWILIGHT U
OBJECT_ID      = 2026-004U
CENTER_NAME    = EARTH
REF_FRAME      = TEME
TIME_SYSTEM    = UTC
MEAN_ELEMENT_THEORY = SGP/SGP4

EPOCH          = 2026-01-29T02:22:17.175360
MEAN_MOTION    = 14.87635069
ECCENTRICITY   = .00020921
INCLINATION    = 97.8008
RA_OF_ASC_NODE = 29.9801
ARG_OF_PERICENTER = 273.6119
MEAN_ANOMALY   = 86.4858

EPHEMERIS_TYPE = 0
CLASSIFICATION_TYPE = U
NORAD_CAT_ID   = 67381
ELEMENT_SET_NO = 999
REV_AT_EPOCH   = 260
BSTAR          = -.12140991E-1
MEAN_MOTION_DOT = -.108713E-2
MEAN_MOTION_DDOT = 0

CCSDS_OMM_VERS = 2.0
CREATION_DATE  = 
ORIGINATOR     = 

OBJECT_NAME    = TWILIGHT V
OBJECT_ID      = 2026-004V
CENTER_NAME    = EARTH
REF_FRAME      = TEME
TIME_SYSTEM    = UTC
MEAN_ELEMENT_THEORY = SGP/SGP4

EPOCH          = 2026-01-31T10:50:13.703136
MEAN_MOTION    = 14.88011937
ECCENTRICITY   = .0004012
INCLINATION    = 97.7994
RA_OF_ASC_NODE = 32.2929
ARG_OF_PERICENTER = 193.8714
MEAN_ANOMALY   = 166.2393

EPHEMERIS_TYPE = 0
CLASSIFICATION_TYPE = U
NORAD_CAT_ID   = 67382
ELEMENT_SET_NO = 999
REV_AT_EPOCH   = 295
BSTAR          = .21583E-3
MEAN_MOTION_DOT = .1927E-4
MEAN_MOTION_DDOT = 0

CCSDS_OMM_VERS = 2.0
CREATION_DATE  = 
ORIGINATOR     = 

OBJECT_NAME    = TWILIGHT W
OBJECT_ID      = 2026-004W
CENTER_NAME    = EARTH
REF_FRAME      = TEME
TIME_SYSTEM    = UTC
MEAN_ELEMENT_THEORY = SGP/SGP4

EPOCH          = 2026-01-31T10:55:29.393184
MEAN_MOTION    = 14.87744133
ECCENTRICITY   = .0004352
INCLINATION    = 97.7969
RA_OF_ASC_NODE = 32.2844
ARG_OF_PERICENTER = 211.9320
MEAN_ANOMALY   = 148.1633

EPHEMERIS_TYPE = 0
CLASSIFICATION_TYPE = U
NORAD_CAT_ID   = 67383
ELEMENT_SET_NO = 999
REV_AT_EPOCH   = 295
BSTAR          = .29586E-3
MEAN_MOTION_DOT = .2645E-4
MEAN_MOTION_DDOT = 0

CCSDS_OMM_VERS = 2.0
CREATION_DATE  = 
ORIGINATOR     = 

OBJECT_NAME    = TWILIGHT X
OBJECT_ID      = 2026-004X
CENTER_NAME    = EARTH
REF_FRAME      = TEME
TIME_SYSTEM    = UTC
MEAN_ELEMENT_THEORY = SGP/SGP4

EPOCH          = 2026-01-31T10:47:48.964128
MEAN_MOTION    = 14.88249194
ECCENTRICITY   = .0003472
INCLINATION    = 97.7967
RA_OF_ASC_NODE = 32.2912
ARG_OF_PERICENTER = 194.4233
MEAN_ANOMALY   = 165.6885

EPHEMERIS_TYPE = 0
CLASSIFICATION_TYPE = U
NORAD_CAT_ID   = 67384
ELEMENT_SET_NO = 999
REV_AT_EPOCH   = 295
BSTAR          = .24584E-3
MEAN_MOTION_DOT = .2216E-4
MEAN_MOTION_DDOT = 0

CCSDS_OMM_VERS = 2.0
CREATION_DATE  = 
ORIGINATOR     = 

OBJECT_NAME    = TWILIGHT Y
OBJECT_ID      = 2026-004Y
CENTER_NAME    = EARTH
REF_FRAME      = TEME
TIME_SYSTEM    = UTC
MEAN_ELEMENT_THEORY = SGP/SGP4

EPOCH          = 2026-01-31T10:46:12.304992
MEAN_MOTION    = 14.88340484
ECCENTRICITY   = .0003419
INCLINATION    = 97.7979
RA_OF_ASC_NODE = 32.2944
ARG_OF_PERICENTER = 187.3645
MEAN_ANOMALY   = 172.7522

EPHEMERIS_TYPE = 0
CLASSIFICATION_TYPE = U
NORAD_CAT_ID   = 67385
ELEMENT_SET_NO = 999
REV_AT_EPOCH   = 295
BSTAR          = .60079E-3
MEAN_MOTION_DOT = .5508E-4
MEAN_MOTION_DDOT = 0

CCSDS_OMM_VERS = 2.0
CREATION_DATE  = 
ORIGINATOR     = 

OBJECT_NAME    = TWILIGHT Z
OBJECT_ID      = 2026-004Z
CENTER_NAME    = EARTH
REF_FRAME      = TEME
TIME_SYSTEM    = UTC
MEAN_ELEMENT_THEORY = SGP/SGP4

EPOCH          = 2026-01-31T10:44:10.002336
MEAN_MOTION    = 14.88328678
ECCENTRICITY   = .0002215
INCLINATION    = 97.7961
RA_OF_ASC_NODE = 32.2942
ARG_OF_PERICENTER = 184.3676
MEAN_ANOMALY   = 175.7522

EPHEMERIS_TYPE = 0
CLASSIFICATION_TYPE = U
NORAD_CAT_ID   = 67386
ELEMENT_SET_NO = 999
REV_AT_EPOCH   = 295
BSTAR          = .25711E-3
MEAN_MOTION_DOT = .2325E-4
MEAN_MOTION_DDOT = 0

CCSDS_OMM_VERS = 2.0
CREATION_DATE  = 
ORIGINATOR     = 

OBJECT_NAME    = TWILIGHT AA
OBJECT_ID      = 2026-004AA
CENTER_NAME    = EARTH
REF_FRAME      = TEME
TIME_SYSTEM    = UTC
MEAN_ELEMENT_THEORY = SGP/SGP4

EPOCH          = 2026-01-31T10:39:19.028736
MEAN_MOTION    = 14.88652855
ECCENTRICITY   = .0003433
INCLINATION    = 97.8011
RA_OF_ASC_NODE = 32.3040
ARG_OF_PERICENTER = 154.3833
MEAN_ANOMALY   = 205.7554

EPHEMERIS_TYPE = 0
CLASSIFICATION_TYPE = U
NORAD_CAT_ID   = 67387
ELEMENT_SET_NO = 999
REV_AT_EPOCH   = 295
BSTAR          = .5559E-3
MEAN_MOTION_DOT = .5132E-4
MEAN_MOTION_DDOT = 0

