TWILIGHT P              
1 67376U 26004P   26031.45455095  .00001967  00000+0  22141-3 0  9995
2 67376  97.7996  32.2891 0004606 204.9236 155.1758 14.87785633  2966
TWILIGHT Q              
1 67377U 26004Q   26030.51082351  .00145780  00000+0  15452-1 0  9990
2 67377  97.7999  31.3669 0006652 209.0200 151.0648 14.88280196  2815
TWILIGHT R              
1 67378U 26004R   26031.45553890  .00002314  00000+0  25975-3 0  9994
2 67378  97.7968  32.2830 0004035 214.3411 145.7545 14.87717485  2954
TWILIGHT S              
1 67379U 26004S   26031.45538494  .00002205  00000+0  24774-3 0  9993
2 67379  97.7972  32.2849 0004532 210.9682 149.1267 14.87726332  2954
TWILIGHT T              
1 67380U 26004T   26031.45418333  .00002640  00000+0  29483-3 0  9999
2 67380  97.7965  32.2848 0004041 209.5877 150.5111 14.87826872  2956
TWILIGHT U              
1 67381U 26004U   26029.09880990 -.00108713  00000+0 -12141-1 0  9990
2 67381  97.8008  29.9801 0002092 273.6119  86.4858 14.87635069  2606
TWILIGHT V              
1 67382U 26004V   26031.45154749  .00001927  00000+0  21583-3 0  9999
2 67382  97.7994  32.2929 0004012 193.8714 166.2393 14.88011937  2958
TWILIGHT W              
1 67383U 26004W   26031.45520131  .00002645  00000+0  29586-3 0  9991
2 67383  97.7969  32.2844 0004352 211.9320 148.1633 14.87744133  2955
TWILIGHT X              
1 67384U 26004X   26031.44987227  .00002216  00000+0  24584-3 0  9991
2 67384  97.7967  32.2912 0003472 194.4233 165.6885 14.88249194  2951
TWILIGHT Y              
1 67385U 26004Y   26031.44875353  .00005508  00000+0  60079-3 0  9994
2 67385  97.7979  32.2944 0003419 187.3645 172.7522 14.88340484  2950
TWILIGHT Z              
1 67386U 26004Z   26031.44733799  .00002325  00000+0  25711-3 0  9990
2 67386  97.7961  32.2942 0002215 184.3676 175.7522 14.88328678  2958
TWILIGHT AA             
1 67387U 26004AA  26031.44397024  .00005132  00000+0  55590-3 0  9995
2 67387  97.8011  32.3040 0003433 154.3833 205.7554 14.88652855  2957
